{
    "links": {
        "self": "http://www.neowsapp.com/rest/v1/neo/3883111?api_key=iIulBulltgU6a56xZRHN4H3l9WmuAYTsLGpBGhQ2"
    },
    "id": "3883111",
    "neo_reference_id": "3883111",
    "name": "(2019 UK8)",
    "designation": "2019 UK8",
    "nasa_jpl_url": "http://ssd.jpl.nasa.gov/sbdb.cgi?sstr=3883111",
    "absolute_magnitude_h": 24.8,
    "estimated_diameter": {
        "kilometers": {
            "estimated_diameter_min": 0.0291443905,
            "estimated_diameter_max": 0.0651688382
        },
        "meters": {
            "estimated_diameter_min": 29.1443904535,
            "estimated_diameter_max": 65.1688382168
        },
        "miles": {
            "estimated_diameter_min": 0.018109479,
            "estimated_diameter_max": 0.0404940262
        },
        "feet": {
            "estimated_diameter_min": 95.6180819754,
            "estimated_diameter_max": 213.8085311752
        }
    },
    "is_potentially_hazardous_asteroid": false,
    "close_approach_data": [
        {
            "close_approach_date": "1939-02-07",
            "close_approach_date_full": "1939-Feb-07 18:47",
            "epoch_date_close_approach": -975042780000,
            "relative_velocity": {
                "kilometers_per_second": "7.087211014",
                "kilometers_per_hour": "25513.9596504793",
                "miles_per_hour": "15853.3823172659"
            },
            "miss_distance": {
                "astronomical": "0.071206149",
                "lunar": "27.699191961",
                "kilometers": "10652288.22130263",
                "miles": "6619024.972451094"
            },
            "orbiting_body": "Mars"
        },
        {
            "close_approach_date": "2019-10-09",
            "close_approach_date_full": "2019-Oct-09 00:08",
            "epoch_date_close_approach": 1570579680000,
            "relative_velocity": {
                "kilometers_per_second": "9.9508822902",
                "kilometers_per_hour": "35823.1762447287",
                "miles_per_hour": "22259.1285949538"
            },
            "miss_distance": {
                "astronomical": "0.0617285611",
                "lunar": "24.0124102679",
                "kilometers": "9234461.258724857",
                "miles": "5738028.1502707466"
            },
            "orbiting_body": "Earth"
        }
    ],
    "orbital_data": {
        "orbit_id": "1",
        "orbit_determination_date": "2019-10-27 00:42:09",
        "first_observation_date": "2019-10-25",
        "last_observation_date": "2019-10-26",
        "data_arc_in_days": 1,
        "observations_used": 20,
        "orbit_uncertainty": "9",
        "minimum_orbit_intersection": ".0351392",
        "jupiter_tisserand_invariant": "4.377",
        "epoch_osculation": "2458782.5",
        "eccentricity": ".3941579127833445",
        "semi_major_axis": "1.5402166470033",
        "inclination": "2.875753440818553",
        "ascending_node_longitude": "237.6909695339712",
        "orbital_period": "698.1860165727516",
        "perihelion_distance": ".9331280681863178",
        "perihelion_argument": "89.22724578809336",
        "aphelion_distance": "2.147305225820282",
        "perihelion_time": "2458727.979270642686",
        "mean_anomaly": "28.11208202791017",
        "mean_motion": ".5156218994003409",
        "equinox": "J2000",
        "orbit_class": {
            "orbit_class_type": "APO",
            "orbit_class_description": "Near-Earth asteroid orbits which cross the Earth’s orbit similar to that of 1862 Apollo",
            "orbit_class_range": "a (semi-major axis) > 1.0 AU; q (perihelion) < 1.017 AU"
        }
    },
    "is_sentry_object": false
}